{"generatedAt":"2026-03-28T15:08:58.243601Z","satellites":[{"name":"HIMAWARI-9","tle1":"1 41836U 16064A   26087.16433530 -.00000294  00000+0  00000+0 0  9991","tle2":"2 41836   0.0261 135.0536 0001056 224.2285  26.2210  1.00272830 34398"},{"name":"SHIJIAN-17 (SJ-17)","tle1":"1 41838U 16065A   26087.11605227 -.00000124  00000+0  00000+0 0  9995","tle2":"2 41838   5.5479  73.5640 0001103 324.2177 185.2825  0.99868915 34397"},{"name":"GOES 16","tle1":"1 41866U 16071A   26087.20045109 -.00000110  00000+0  00000+0 0  9995","tle2":"2 41866   0.1567  85.5096 0002217 232.3887 195.1795  1.00271484 34296"},{"name":"TIANLIAN 1-04","tle1":"1 41869U 16072A   26087.22317272  .00000011  00000+0  00000+0 0  9993","tle2":"2 41869   0.6577  83.3271 0040021  94.0409 265.3690  1.00272058 34487"},{"name":"WGS F8 (USA 272)","tle1":"1 41879U 16075A   26086.93262599 -.00000222  00000+0  00000+0 0  9990","tle2":"2 41879   0.0068 184.5082 0000233 176.5983 309.7845  1.00271191 34005"},{"name":"FENGYUN 4A","tle1":"1 41882U 16077A   26087.28401297 -.00000375  00000+0  00000+0 0  9994","tle2":"2 41882   2.1174  81.0854 0007491 136.2840 194.2536  1.00266420 34111"},{"name":"ECHOSTAR 19","tle1":"1 41893U 16079A   26087.22874178 -.00000158  00000+0  00000+0 0  9993","tle2":"2 41893   0.0189 152.4554 0001477 196.7830 181.6400  1.00274716 33895"},{"name":"JCSAT-110A (JCSAT-15)","tle1":"1 41903U 16082A   26087.06989304 -.00000370  00000+0  00000+0 0  9995","tle2":"2 41903   0.0038  94.7093 0000651 282.9043 303.0930  1.00270253 33949"},{"name":"STAR ONE D1","tle1":"1 41904U 16082B   26087.18933566 -.00000230  00000+0  00000+0 0  9993","tle2":"2 41904   0.0174 233.1752 0002130 144.4092 152.1778  1.00270917 33964"},{"name":"TJS-2","tle1":"1 41911U 17001A   26087.20947576 -.00000025  00000+0  00000+0 0  9994","tle2":"2 41911   0.6247  86.3622 0001464 261.2657 339.9278  1.00271378 33903"},{"name":"SBIRS GEO-4 (USA 273)","tle1":"1 41937U 17004A   26087.12107895  .00000106  00000+0  00000+0 0  9997","tle2":"2 41937   2.0929  40.8607 0002341 318.1207 251.0371  1.00272303 33783"},{"name":"HISPASAT 36W-1","tle1":"1 41942U 17006A   26087.26503117 -.00000264  00000+0  00000+0 0  9993","tle2":"2 41942   0.0193  59.9155 0000984 306.7632 238.4041  1.00272077 33438"},{"name":"TELKOM 3S","tle1":"1 41944U 17007A   26087.05878057 -.00000382  00000+0  00000+0 0  9992","tle2":"2 41944   0.0195 197.2370 0002321 165.4072 321.9851  1.00272788 33326"},{"name":"INTELSAT 32E (IS-32E)","tle1":"1 41945U 17007B   26086.96573279  .00000000  00000+0  00000+0 0  9996","tle2":"2 41945   0.0236 167.5984 0000607 133.5202 188.7626  1.00268654 33416"},{"name":"ECHOSTAR 23","tle1":"1 42070U 17014A   26087.20600561  .00000000  00000+0  00000+0 0  9997","tle2":"2 42070   0.0234 170.1853 0001973 196.6874 143.0261  1.00271054 33115"},{"name":"WGS F9 (USA 275)","tle1":"1 42075U 17016A   26087.25392132 -.00000116  00000+0  00000+0 0  9990","tle2":"2 42075   0.0100 192.3913 0000837  40.0357  32.6558  1.00269719 33084"},{"name":"SES-10","tle1":"1 42432U 17017A   26086.96105278 -.00000292  00000+0  00000+0 0  9993","tle2":"2 42432   0.0366  42.7221 0002631 328.2064  93.5220  1.00272028 32948"},{"name":"CHINASAT 16 (SJ-13)","tle1":"1 42662U 17018A   26087.28141297 -.00000372  00000+0  00000+0 0  9995","tle2":"2 42662   0.0639  87.1666 0004793 169.6502 140.6702  1.00272993 32936"},{"name":"KOREASAT 7","tle1":"1 42691U 17023A   26086.99727960 -.00000381  00000+0  00000+0 0  9997","tle2":"2 42691   0.0261 308.0689 0001851  76.2911 275.9719  1.00273705 32558"},{"name":"SGDC","tle1":"1 42692U 17023B   26086.69372020 -.00000268  00000+0  00000+0 0  9992","tle2":"2 42692   0.0225  92.0982 0002812 286.6837 341.2056  1.00270253 32597"},{"name":"GSAT-9","tle1":"1 42695U 17024A   26087.28308500 -.00000306  00000+0  00000+0 0  9997","tle2":"2 42695   0.0512 306.9039 0002544  59.0234  18.9875  1.00271189 32488"},{"name":"INMARSAT 5-F4","tle1":"1 42698U 17025A   26087.11086700  .00000000  00000+0  00000+0 0  9998","tle2":"2 42698   0.0232 172.8981 0000248 141.4126 327.6503  1.00271203 32464"},{"name":"SES-15","tle1":"1 42709U 17026A   26087.21156015  .00000040  00000+0  00000+0 0  9994","tle2":"2 42709   0.0367 334.0126 0000687  13.0357 145.5767  1.00270030  6621"},{"name":"QZS-2 (MICHIBIKI-2)","tle1":"1 42738U 17028A   26086.74975348 -.00000207  00000+0  00000+0 0  9999","tle2":"2 42738  39.5555 244.3398 0743083 270.5429  80.6029  1.00255798  6801"},{"name":"VIASAT-2","tle1":"1 42740U 17029A   26087.03172526 -.00000285  00000+0  00000+0 0  9999","tle2":"2 42740   0.0185 252.4637 0000457  82.4585 152.0295  1.00271560 32393"},{"name":"EUTELSAT 172B","tle1":"1 42741U 17029B   26087.12127925 -.00000026  00000+0  00000+0 0  9996","tle2":"2 42741   0.0186 160.5830 0000188  91.9197 148.6752  1.00271001 32922"},{"name":"GSAT-19","tle1":"1 42747U 17031A   26087.12636564  .00000106  00000+0  00000+0 0  9997","tle2":"2 42747   0.0757  86.1696 0004927 308.0348 244.6995  1.00273237 32334"},{"name":"ECHOSTAR 21","tle1":"1 42749U 17032A   26087.24281126  .00000046  00000+0  00000+0 0  9996","tle2":"2 42749   1.7866 350.3976 0002569 359.2632 293.6492  1.00270668 32281"},{"name":"BULGARIASAT-1","tle1":"1 42801U 17038A   26087.24281126 -.00000008  00000+0  00000+0 0  9990","tle2":"2 42801   0.0323  96.6403 0003210 279.9783 258.3385  1.00276013 32036"},{"name":"HELLAS-SAT 3","tle1":"1 42814U 17040A   26087.19595927  .00000133  00000+0  00000+0 0  9996","tle2":"2 42814   0.0726  44.7972 0005324 321.8712 288.4685  1.00273052 31990"},{"name":"GSAT-17","tle1":"1 42815U 17040B   26087.28308500 -.00000277  00000+0  00000+0 0  9996","tle2":"2 42815   0.0498  74.1707 0004550 225.2991  81.6232  1.00270340 31972"},{"name":"INTELSAT 35E (IS-35E)","tle1":"1 42818U 17041A   26087.22980612 -.00000258  00000+0  00000+0 0  9993","tle2":"2 42818   0.0206 207.4849 0002137 151.7749 234.6009  1.00271219 32006"},{"name":"COSMOS 2520","tle1":"1 42907U 17046A   26087.19717262  .00000117  00000+0  00000+0 0  9995","tle2":"2 42907   0.0256 116.3207 0000972 321.2125 224.0642  1.00274857 31582"},{"name":"TDRS 13","tle1":"1 42915U 17047A   26087.25378243 -.00000117  00000+0  00000+0 0  9995","tle2":"2 42915   3.4345   0.6823 0011276  97.6833 167.1861  1.00271651 31539"},{"name":"QZS-3 (MICHIBIKI-3)","tle1":"1 42917U 17048A   26086.99944627 -.00000367  00000+0  00000+0 0  9990","tle2":"2 42917   0.0531 162.8902 0002048 195.0237 314.3080  1.00274640 31448"},{"name":"AMAZONAS 5","tle1":"1 42934U 17053A   26087.06167786 -.00000302  00000+0  00000+0 0  9996","tle2":"2 42934   0.0461 322.4034 0005076  19.3555 164.9222  1.00272105 31232"},{"name":"ASIASAT 9","tle1":"1 42942U 17057A   26086.64195917 -.00000378  00000+0  00000+0 0  9992","tle2":"2 42942   0.0114 206.7351 0002058 158.9030 172.6394  1.00270081 31043"},{"name":"INTELSAT 37E (IS-37E)","tle1":"1 42950U 17059A   26087.25392132  .00000000  00000+0  00000+0 0  9990","tle2":"2 42950   0.0236 176.2590 0001985 193.3666 249.4694  1.00268967 31258"},{"name":"BSAT-4A","tle1":"1 42951U 17059B   26087.06989304 -.00000369  00000+0  00000+0 0  9992","tle2":"2 42951   0.0648  40.9575 0004356 350.0916 289.4326  1.00270215 30985"},{"name":"QZS-4 (MICHIBIKI-4)","tle1":"1 42965U 17062A   26086.57267221 -.00000330  00000+0  00000+0 0  9991","tle2":"2 42965  40.1575 344.5263 0748141 270.3376 276.9174  1.00273843 30984"},{"name":"SES-11 (ECHOSTAR 105)","tle1":"1 42967U 17063A   26087.20045109 -.00000109  00000+0  00000+0 0  9998","tle2":"2 42967   0.0436  23.3174 0002544 350.6934 138.8139  1.00271575 30912"},{"name":"KOREASAT 5A","tle1":"1 42984U 17067A   26087.06989304 -.00000378  00000+0  00000+0 0  9997","tle2":"2 42984   0.0181 264.9955 0001796 118.0223 300.7759  1.00273211 30718"},{"name":"ALCOMSAT 1","tle1":"1 43039U 17078A   26087.25947625 -.00000206  00000+0  00000+0 0  9992","tle2":"2 43039   0.0192 166.8251 0002649 177.2729 270.1943  1.00271609 30485"},{"name":"SBIRS GEO-3 (USA 282)","tle1":"1 43162U 18009A   26087.12336378  .00000110  00000+0  00000+0 0  9990","tle2":"2 43162   2.1349   8.1390 0002293 349.8199  72.5819  1.00272093 30039"},{"name":"AL YAH 3","tle1":"1 43174U 18012A   26087.25392132 -.00000174  00000+0  00000+0 0  9992","tle2":"2 43174   1.3432  84.0656 0004252 287.3174 245.5962  1.00272126 30038"},{"name":"SES-14","tle1":"1 43175U 18012B   26087.03623194 -.00000298  00000+0  00000+0 0  9991","tle2":"2 43175   0.0329  44.4988 0000938 305.3962 161.0948  1.00272217  6211"},{"name":"GOES 17","tle1":"1 43226U 18022A   26087.19489317 -.00000201  00000+0  00000+0 0  9997","tle2":"2 43226   0.7301  86.9458 0001560 235.5058 203.8174  1.00271211 29618"},{"name":"HISPASAT 30W-6","tle1":"1 43228U 18023A   26086.89703773 -.00000235  00000+0  00000+0 0  9998","tle2":"2 43228   0.0592  26.7917 0005921 350.2205 101.2207  1.00271333 29591"},{"name":"SUPERBIRD-B3","tle1":"1 43271U 18033A   26087.22197561 -.00000112  00000+0  00000+0 0  9991","tle2":"2 43271   0.0262  95.2158 0001231 278.6421  53.6808  1.00271431 29242"},{"name":"HYLAS 4","tle1":"1 43272U 18033B   26087.26503117 -.00000254  00000+0  00000+0 0  9991","tle2":"2 43272   0.0197 112.5944 0001018 260.9463 233.9860  1.00269261 29259"},{"name":"IRNSS-1I","tle1":"1 43286U 18035A   26087.05642536  .00000084  00000+0  00000+0 0  9994","tle2":"2 43286  28.9881  75.4448 0018650 189.4737 355.9691  1.00275910 29264"},{"name":"USA 283","tle1":"1 43339U 18036A   26086.43239280  .00000000  00000+0  00000+0 0  9991","tle2":"2 43339   0.0191 155.1188 0000120 145.4214 174.0767  1.00268377 24471"},{"name":"COSMOS 2526","tle1":"1 43432U 18037A   26086.42918575 -.00000363  00000+0  00000+0 0  9999","tle2":"2 43432   0.0048 211.5628 0001048 237.8588  17.9860  1.00272253 29148"},{"name":"APSTAR-6C","tle1":"1 43450U 18041A   26087.21476602 -.00000337  00000+0  00000+0 0  9993","tle2":"2 43450   0.0475 359.7213 0002608 343.8741  53.3315  1.00274061 28999"}]}